{"type": "FeatureCollection", "features": [ {"type": "Feature", "properties": {"norad_id": 66796, "name": "STARLINK-35964", "group": "last-30-days", "lat": 40.78033490550681, "lon": -64.0141699023054, "alt_km": 313.688550629141, "timestamp": "2025-12-16T10:53:44.206159+00:00", "meta": {"OBJECT_NAME": "STARLINK-35964", "OBJECT_ID": "2025-278F", "EPOCH": "2025-12-15T22:00:01.999584", "MEAN_MOTION": 15.8720461, "ECCENTRICITY": 7.642e-05, "INCLINATION": 42.9936, "RA_OF_ASC_NODE": 231.4944, "ARG_OF_PERICENTER": 273.9665, "MEAN_ANOMALY": 328.7361, "EPHEMERIS_TYPE": 0, "CLASSIFICATION_TYPE": "U", "NORAD_CAT_ID": 66796, "ELEMENT_SET_NO": 999, "REV_AT_EPOCH": 330, "BSTAR": -0.011881737, "MEAN_MOTION_DOT": -0.02719054, "MEAN_MOTION_DDOT": 0}, "tle": {"line1": "1 66796U 25278F   25349.91668981 -.02719054  00000+0 -11882-1 0  9999", "line2": "2 66796  42.9936 231.4944 0000764 273.9665 328.7361 15.87204610  3301"}}, "geometry": {"type": "Point", "coordinates": [-64.0141699023054, 40.78033490550681]}}, {"type": "Feature", "properties": {"norad_id": 66797, "name": "STARLINK-36099", "group": "last-30-days", "lat": -14.861061314207374, "lon": -147.20710066452918, "alt_km": 340.2298104899728, "timestamp": "2025-12-16T10:53:44.206169+00:00", "meta": {"OBJECT_NAME": "STARLINK-36099", "OBJECT_ID": "2025-278G", "EPOCH": "2025-12-15T22:00:01.999584", "MEAN_MOTION": 15.78345675, "ECCENTRICITY": 0.00014966, "INCLINATION": 42.9977, "RA_OF_ASC_NODE": 232.6118, "ARG_OF_PERICENTER": 277.314, "MEAN_ANOMALY": 245.4603, "EPHEMERIS_TYPE": 0, "CLASSIFICATION_TYPE": "U", "NORAD_CAT_ID": 66797, "ELEMENT_SET_NO": 999, "REV_AT_EPOCH": 352, "BSTAR": -0.0082132912, "MEAN_MOTION_DOT": -0.01309092, "MEAN_MOTION_DDOT": 0}, "tle": {"line1": "1 66797U 25278G   25349.91668981 -.01309092  00000+0 -82133-2 0  9994", "line2": "2 66797  42.9977 232.6118 0001496 277.3140 245.4603 15.78345675  3527"}}, "geometry": {"type": "Point", "coordinates": [-147.20710066452918, -14.861061314207374]}}, {"type": "Feature", "properties": {"norad_id": 66798, "name": "STARLINK-36041", "group": "last-30-days", "lat": -13.54662498310636, "lon": -145.65231400713378, "alt_km": 340.28567561588716, "timestamp": "2025-12-16T10:53:44.206181+00:00", "meta": {"OBJECT_NAME": "STARLINK-36041", "OBJECT_ID": "2025-278H", "EPOCH": "2025-12-15T22:00:01.999584", "MEAN_MOTION": 15.78325512, "ECCENTRICITY": 0.00016081, "INCLINATION": 42.9978, "RA_OF_ASC_NODE": 232.6065, "ARG_OF_PERICENTER": 273.1474, "MEAN_ANOMALY": 251.6825, "EPHEMERIS_TYPE": 0, "CLASSIFICATION_TYPE": "U", "NORAD_CAT_ID": 66798, "ELEMENT_SET_NO": 999, "REV_AT_EPOCH": 330, "BSTAR": -0.0083019311, "MEAN_MOTION_DOT": -0.01320719, "MEAN_MOTION_DDOT": 0}, "tle": {"line1": "1 66798U 25278H   25349.91668981 -.01320719  00000+0 -83019-2 0  9998", "line2": "2 66798  42.9978 232.6065 0001608 273.1474 251.6825 15.78325512  3308"}}, "geometry": {"type": "Point", "coordinates": [-145.65231400713378, -13.54662498310636]}}, {"type": "Feature", "properties": {"norad_id": 66799, "name": "STARLINK-36044", "group": "last-30-days", "lat": -12.183143211294814, "lon": -144.06901649343047, "alt_km": 340.4461414666639, "timestamp": "2025-12-16T10:53:44.206191+00:00", "meta": {"OBJECT_NAME": "STARLINK-36044", "OBJECT_ID": "2025-278J", "EPOCH": "2025-12-15T22:00:01.999584", "MEAN_MOTION": 15.78280674, "ECCENTRICITY": 0.00014414, "INCLINATION": 42.9978, "RA_OF_ASC_NODE": 232.6013, "ARG_OF_PERICENTER": 269.7765, "MEAN_ANOMALY": 257.2076, "EPHEMERIS_TYPE": 0, "CLASSIFICATION_TYPE": "U", "NORAD_CAT_ID": 66799, "ELEMENT_SET_NO": 999, "REV_AT_EPOCH": 346, "BSTAR": -0.0083320876, "MEAN_MOTION_DOT": -0.01322502, "MEAN_MOTION_DDOT": 0}, "tle": {"line1": "1 66799U 25278J   25349.91668981 -.01322502  00000+0 -83321-2 0  9997", "line2": "2 66799  42.9978 232.6013 0001441 269.7765 257.2076 15.78280674  3467"}}, "geometry": {"type": "Point", "coordinates": [-144.06901649343047, -12.183143211294814]}}, {"type": "Feature", "properties": {"norad_id": 66800, "name": "STARLINK-35996", "group": "last-30-days", "lat": -9.45341923630242, "lon": -140.97595388889422, "alt_km": 340.3890421580718, "timestamp": "2025-12-16T10:53:44.206201+00:00", "meta": {"OBJECT_NAME": "STARLINK-35996", "OBJECT_ID": "2025-278K", "EPOCH": "2025-12-15T22:00:01.999584", "MEAN_MOTION": 15.78205998, "ECCENTRICITY": 0.00014518, "INCLINATION": 42.9979, "RA_OF_ASC_NODE": 232.5901, "ARG_OF_PERICENTER": 278.4161, "MEAN_ANOMALY": 252.8572, "EPHEMERIS_TYPE": 0, "CLASSIFICATION_TYPE": "U", "NORAD_CAT_ID": 66800, "ELEMENT_SET_NO": 999, "REV_AT_EPOCH": 325, "BSTAR": -0.0086479788, "MEAN_MOTION_DOT": -0.01363075, "MEAN_MOTION_DDOT": 0}, "tle": {"line1": "1 66800U 25278K   25349.91668981 -.01363075  00000+0 -86480-2 0  9999", "line2": "2 66800  42.9979 232.5901 0001451 278.4161 252.8572 15.78205998  3259"}}, "geometry": {"type": "Point", "coordinates": [-140.97595388889422, -9.45341923630242]}}, {"type": "Feature", "properties": {"norad_id": 66801, "name": "STARLINK-36080", "group": "last-30-days", "lat": -2.5921086165638263, "lon": -133.49284357272066, "alt_km": 340.8343844790079, "timestamp": "2025-12-16T10:53:44.206215+00:00", "meta": {"OBJECT_NAME": "STARLINK-36080", "OBJECT_ID": "2025-278L", "EPOCH": "2025-12-15T22:00:01.999584", "MEAN_MOTION": 15.77968185, "ECCENTRICITY": 0.00014823, "INCLINATION": 42.9978, "RA_OF_ASC_NODE": 232.5627, "ARG_OF_PERICENTER": 271.7118, "MEAN_ANOMALY": 270.2416, "EPHEMERIS_TYPE": 0, "CLASSIFICATION_TYPE": "U", "NORAD_CAT_ID": 66801, "ELEMENT_SET_NO": 999, "REV_AT_EPOCH": 346, "BSTAR": -0.0092153863, "MEAN_MOTION_DOT": -0.01428504, "MEAN_MOTION_DDOT": 0}, "tle": {"line1": "1 66801U 25278L   25349.91668981 -.01428504  00000+0 -92154-2 0  9994", "line2": "2 66801  42.9978 232.5627 0001482 271.7118 270.2416 15.77968185  3463"}}, "geometry": {"type": "Point", "coordinates": [-133.49284357272066, -2.5921086165638263]}}, {"type": "Feature", "properties": {"norad_id": 66802, "name": "STARLINK-35604", "group": "last-30-days", "lat": -10.84828786724046, "lon": -142.54503203778145, "alt_km": 340.5224574689928, "timestamp": "2025-12-16T10:53:44.206227+00:00", "meta": {"OBJECT_NAME": "STARLINK-35604", "OBJECT_ID": "2025-278M", "EPOCH": "2025-12-15T22:00:01.999584", "MEAN_MOTION": 15.78257878, "ECCENTRICITY": 0.00014738, "INCLINATION": 42.998, "RA_OF_ASC_NODE": 232.5958, "ARG_OF_PERICENTER": 267.0515, "MEAN_ANOMALY": 262.0041, "EPHEMERIS_TYPE": 0, "CLASSIFICATION_TYPE": "U", "NORAD_CAT_ID": 66802, "ELEMENT_SET_NO": 999, "REV_AT_EPOCH": 346, "BSTAR": -0.008458273, "MEAN_MOTION_DOT": -0.0133918, "MEAN_MOTION_DDOT": 0}, "tle": {"line1": "1 66802U 25278M   25349.91668981 -.01339180  00000+0 -84583-2 0  9993", "line2": "2 66802  42.9980 232.5958 0001473 267.0515 262.0041 15.78257878  3467"}}, "geometry": {"type": "Point", "coordinates": [-142.54503203778145, -10.84828786724046]}}, {"type": "Feature", "properties": {"norad_id": 66803, "name": "STARLINK-35565", "group": "last-30-days", "lat": -8.10984591984921, "lon": -139.48354540070832, "alt_km": 340.4556517848032, "timestamp": "2025-12-16T10:53:44.206238+00:00", "meta": {"OBJECT_NAME": "STARLINK-35565", "OBJECT_ID": "2025-278N", "EPOCH": "2025-12-15T22:00:01.999584", "MEAN_MOTION": 15.78184845, "ECCENTRICITY": 0.00015985, "INCLINATION": 42.9979, "RA_OF_ASC_NODE": 232.5851, "ARG_OF_PERICENTER": 275.3632, "MEAN_ANOMALY": 257.9795, "EPHEMERIS_TYPE": 0, "CLASSIFICATION_TYPE": "U", "NORAD_CAT_ID": 66803, "ELEMENT_SET_NO": 999, "REV_AT_EPOCH": 355, "BSTAR": -0.0088374897, "MEAN_MOTION_DOT": -0.01388544, "MEAN_MOTION_DDOT": 0}, "tle": {"line1": "1 66803U 25278N   25349.91668981 -.01388544  00000+0 -88375-2 0  9995", "line2": "2 66803  42.9979 232.5851 0001598 275.3632 257.9795 15.78184845  3550"}}, "geometry": {"type": "Point", "coordinates": [-139.48354540070832, -8.10984591984921]}}, {"type": "Feature", "properties": {"norad_id": 66804, "name": "STARLINK-36038", "group": "last-30-days", "lat": -6.697853233969791, "lon": -137.93253351618125, "alt_km": 340.722314337253, "timestamp": "2025-12-16T10:53:44.206248+00:00", "meta": {"OBJECT_NAME": "STARLINK-36038", "OBJECT_ID": "2025-278P", "EPOCH": "2025-12-15T22:00:01.999584", "MEAN_MOTION": 15.78110541, "ECCENTRICITY": 0.00013653, "INCLINATION": 42.9982, "RA_OF_ASC_NODE": 232.5793, "ARG_OF_PERICENTER": 271.3165, "MEAN_ANOMALY": 264.275, "EPHEMERIS_TYPE": 0, "CLASSIFICATION_TYPE": "U", "NORAD_CAT_ID": 66804, "ELEMENT_SET_NO": 999, "REV_AT_EPOCH": 346, "BSTAR": -0.008927672, "MEAN_MOTION_DOT": -0.01396789, "MEAN_MOTION_DDOT": 0}, "tle": {"line1": "1 66804U 25278P   25349.91668981 -.01396789  00000+0 -89277-2 0  9998", "line2": "2 66804  42.9982 232.5793 0001365 271.3165 264.2750 15.78110541  3463"}}, "geometry": {"type": "Point", "coordinates": [-137.93253351618125, -6.697853233969791]}}, {"type": "Feature", "properties": {"norad_id": 66805, "name": "STARLINK-36049", "group": "last-30-days", "lat": -3.9670280548846213, "lon": -134.97070397540134, "alt_km": 340.6657491157339, "timestamp": "2025-12-16T10:53:44.206258+00:00", "meta": {"OBJECT_NAME": "STARLINK-36049", "OBJECT_ID": "2025-278Q", "EPOCH": "2025-12-15T22:00:01.999584", "MEAN_MOTION": 15.78023935, "ECCENTRICITY": 0.00013659, "INCLINATION": 42.9978, "RA_OF_ASC_NODE": 232.5685, "ARG_OF_PERICENTER": 278.0721, "MEAN_ANOMALY": 261.7508, "EPHEMERIS_TYPE": 0, "CLASSIFICATION_TYPE": "U", "NORAD_CAT_ID": 66805, "ELEMENT_SET_NO": 999, "REV_AT_EPOCH": 346, "BSTAR": -0.0091711785, "MEAN_MOTION_DOT": -0.01425554, "MEAN_MOTION_DDOT": 0}, "tle": {"line1": "1 66805U 25278Q   25349.91668981 -.01425554  00000+0 -91712-2 0  9999", "line2": "2 66805  42.9978 232.5685 0001365 278.0721 261.7508 15.78023935  3464"}}, "geometry": {"type": "Point", "coordinates": [-134.97070397540134, -3.9670280548846213]}}]}